{
  "norad_id": 68867,
  "name": "KUIPER-00364",
  "history": [
    {
      "epoch": "2026-05-02T10:00:03.000096Z",
      "apogee_km": 455.8467917370326,
      "perigee_km": 450.445979092523,
      "latitude_deg": 20.876788456335657,
      "longitude_deg": -103.97220860630306,
      "height_km": 451.59330334009036,
      "semi_major_axis_km": 6831.2833854147775,
      "eccentricity": 0.0003953,
      "inclination_deg": 51.8794,
      "raan_deg": 103.6898,
      "arg_perigee_deg": 109.6248,
      "mean_anomaly_deg": 43.4759,
      "mean_motion_rev_day": 15.37621027
    }
  ]
}