{"fetched_at":"2026-05-03T06:27:58Z","count":17151,"tles":[{"name":"KUIPER-00364","line1":"1 68867U 26095D   26122.41670139  .00069215  00000+0  18387-2 0  9992","line2":"2 68867  51.8794 103.6898 0003953 109.6248  43.4759 15.37621027  1306","category":"Other"}]}